ORBCOMM FM11            
1 25114U 97084C   24156.90996773  .00002821  00000+0  88569-3 0  9990
2 25114  45.0152  16.7649 0006014 115.3078 244.8395 14.42499226386972
ORBCOMM-X               
1 21576U 91050C   24156.93962198  .00000655  00000+0  21068-3 0  9996
2 21576  98.3898 224.3609 0002607 233.9401 126.1548 14.42538104727714
ORBCOMM FM02            
1 23546U 95017B   24156.87950539  .00009323  00000+0  12369-2 0  9995
2 23546  69.9688 307.6224 0008266 189.2465 170.8534 14.80058892556121
ORBCOMM FM08            
1 25112U 97084A   24156.74193856  .00003035  00000+0  94506-3 0  9997
2 25112  45.0156  15.6009 0007552 142.9994 217.1378 14.42731246386800
ORBCOMM FM10            
1 25113U 97084B   24156.88904715  .00002654  00000+0  83362-3 0  9991
2 25113  45.0167  16.7749 0005220 115.1802 244.9590 14.42627625561978
ORBCOMM FM12            
1 25115U 97084D   24156.93965875  .00002697  00000+0  84942-3 0  9995
2 25115  45.0159  16.3277 0005031 116.0887 244.0481 14.42466998386740
ORBCOMM FM09            
1 25116U 97084E   24156.95161479  .00002579  00000+0  81464-3 0  9991
2 25116  45.0165  16.9650 0006041 101.3801 258.7728 14.42427189386952
